NORAD_CAT_ID,OBJECT_NAME,OBJECT_TYPE,EPOCH,MEAN_MOTION,ECCENTRICITY,INCLINATION,RA_OF_ASC_NODE,ARG_OF_PERICENTER,MEAN_ANOMALY,BSTAR,MEAN_MOTION_DOT,MEAN_MOTION_DDOT,TLE_LINE0,TLE_LINE1,TLE_LINE2,SEMIMAJOR_AXIS,PERIOD,APOGEE,PERIGEE,DECAYED
53854.0,STARLINK-4800,PAYLOAD,2024-07-21 02:22:44,15.08851345,0.0001249,53.2174,82.5544,97.1029,263.0105,0.00012821,1.754e-05,0.0,0 STARLINK-4800,1 53854U 22114AN  24203.09912166  .00001754  00000-0  12821-3 0  9994,2 53854  53.2174  82.5544 0001249  97.1029 263.0105 15.08851345102506,6917.846,95.437,540.575,538.847,0.0
53854.0,STARLINK-4800,PAYLOAD,2024-07-21 21:27:23,15.08838063,0.0001306,53.2165,78.9829,89.3957,270.7185,-2.4371e-05,-6.76e-06,0.0,0 STARLINK-4800,1 53854U 22114AN  24203.89401635 -.00000676  00000-0 -24371-4 0  9994,2 53854  53.2165  78.9829 0001306  89.3957 270.7185 15.08838063102626,6917.886,95.438,540.655,538.848,0.0
53854.0,STARLINK-4800,PAYLOAD,2024-07-22 22:53:32,15.08847501,0.0001322,53.217,74.2236,71.3282,288.7854,2.908e-05,1.75e-06,0.0,0 STARLINK-4800,1 53854U 22114AN  24204.95385082  .00000175  00000-0  29080-4 0  9993,2 53854  53.2170  74.2236 0001322  71.3282 288.7854 15.08847501103320,6917.857,95.437,540.637,538.808,0.0
53854.0,STARLINK-4800,PAYLOAD,2024-07-23 00:28:55,15.08848529,0.0001407,53.2173,73.9272,95.4493,264.6659,7.8933e-05,9.69e-06,0.0,0 STARLINK-4800,1 53854U 22114AN  24205.02008795  .00000969  00000-0  78933-4 0  9997,2 53854  53.2173  73.9272 0001407  95.4493 264.6659 15.08848529102791,6917.854,95.437,540.693,538.746,0.0
53854.0,STARLINK-4800,PAYLOAD,2024-07-23 08:25:51,15.0884348,9.64e-05,53.2168,72.4431,98.2106,261.8996,-3.1978e-05,-7.97e-06,0.0,0 STARLINK-4800,1 53854U 22114AN  24205.35129104 -.00000797  00000-0 -31978-4 0  9990,2 53854  53.2168  72.4431 0000964  98.2106 261.8996 15.08843480102845,6917.87,95.437,540.402,539.068,0.0
53854.0,STARLINK-4800,PAYLOAD,2024-07-23 22:44:20,15.08837211,0.00012,53.2169,69.7629,98.71,261.4028,9.3634e-06,-1.39e-06,0.0,0 STARLINK-4800,1 53854U 22114AN  24205.94745764 -.00000139  00000-0  93634-5 0  9998,2 53854  53.2169  69.7629 0001200  98.7100 261.4028 15.08837211103474,6917.889,95.438,540.584,538.924,0.0
53854.0,STARLINK-4800,PAYLOAD,2024-07-24 00:19:43,15.08837578,0.0001197,53.2169,69.4652,99.0756,261.0371,1.1701e-05,-1.02e-06,0.0,0 STARLINK-4800,1 53854U 22114AN  24206.01369738 -.00000102  00000-0  11701-4 0  9994,2 53854  53.2169  69.4652 0001197  99.0756 261.0371 15.08837578102947,6917.888,95.438,540.581,538.925,0.0
53854.0,STARLINK-4800,PAYLOAD,2024-07-25 14:28:58,15.08841392,0.0001211,53.2165,62.3313,89.5662,270.5469,3.8489e-05,3.25e-06,0.0,0 STARLINK-4800,1 53854U 22114AN  24207.60345379  .00000325  00000-0  38489-4 0  9993,2 53854  53.2165  62.3313 0001211  89.5662 270.5469 15.08841392103185,6917.876,95.437,540.579,538.903,0.0
53854.0,STARLINK-4800,PAYLOAD,2024-07-26 14:19:45,15.08838026,0.0001471,53.215,57.8734,104.2298,255.8858,5.899e-05,6.51e-06,0.0,0 STARLINK-4800,1 53854U 22114AN  24208.59705448  .00000651  00000-0  58990-4 0  9990,2 53854  53.2150  57.8734 0001471 104.2298 255.8858 15.08838026103877,6917.886,95.438,540.769,538.734,0.0
53854.0,STARLINK-4800,PAYLOAD,2024-07-26 20:41:17,15.08843166,0.0001367,53.2132,56.6856,94.9836,265.1312,9.6949e-05,1.255e-05,0.0,0 STARLINK-4800,1 53854U 22114AN  24208.86201004  .00001255  00000-0  96949-4 0  9996,2 53854  53.2132  56.6856 0001367  94.9836 265.1312 15.08843166103371,6917.871,95.437,540.681,538.79,0.0
53854.0,STARLINK-4800,PAYLOAD,2024-07-26 22:16:40,15.08843599,0.000138,53.2134,56.3883,94.8341,265.2808,9.809e-05,1.274e-05,0.0,0 STARLINK-4800,1 53854U 22114AN  24208.92824973  .00001274  00000-0  98090-4 0  9999,2 53854  53.2134  56.3883 0001380  94.8341 265.2808 15.08843599103927,6917.869,95.437,540.689,538.78,0.0
53854.0,STARLINK-4800,PAYLOAD,2024-07-27 20:32:06,15.08828838,0.0001397,53.2156,52.2246,94.9426,265.1725,-4.6814e-05,-1.033e-05,0.0,0 STARLINK-4800,1 53854U 22114AN  24209.85562733 -.00001033  00000-0 -46814-4 0  9997,2 53854  53.2156  52.2246 0001397  94.9426 265.1725 15.08828838104064,6917.915,95.438,540.746,538.813,0.0
53854.0,STARLINK-4800,PAYLOAD,2024-07-27 22:07:29,15.08832762,0.0001352,53.2169,51.9247,105.9676,254.1465,-2.2597e-05,-6.47e-06,0.0,0 STARLINK-4800,1 53854U 22114AN  24209.92186393 -.00000647  00000-0 -22597-4 0  9991,2 53854  53.2169  51.9247 0001352 105.9676 254.1465 15.08832762103537,6917.903,95.438,540.703,538.832,0.0
53854.0,STARLINK-4800,PAYLOAD,2024-07-28 18:47:29,15.0884557,0.000144,53.2178,48.0606,96.996,263.1196,-6.5416e-05,-1.329e-05,0.0,0 STARLINK-4800,1 53854U 22114AN  24210.78298145 -.00001329  00000-0 -65416-4 0  9991,2 53854  53.2178  48.0606 0001440  96.9960 263.1196 15.08845570103662,6917.863,95.437,540.725,538.732,0.0
53854.0,STARLINK-4800,PAYLOAD,2024-07-29 13:52:07,15.08838511,0.0001402,53.2179,44.493,97.2029,262.9122,0.00013722,1.897e-05,0.0,0 STARLINK-4800,1 53854U 22114AN  24211.57786127  .00001897  00000-0  13722-3 0  9991,2 53854  53.2179  44.4930 0001402  97.2029 262.9122 15.08838511104328,6917.885,95.438,540.72,538.78,0.0
53854.0,STARLINK-4800,PAYLOAD,2024-07-29 20:13:39,15.08845256,0.0001382,53.2181,43.3035,96.3585,263.7564,0.00018427,2.646e-05,0.0,0 STARLINK-4800,1 53854U 22114AN  24211.84281617  .00002646  00000-0  18427-3 0  9995,2 53854  53.2181  43.3035 0001382  96.3585 263.7564 15.08845256103826,6917.864,95.437,540.685,538.773,0.0
53854.0,STARLINK-4800,PAYLOAD,2024-07-30 12:07:31,15.08842368,0.0001457,53.2183,40.3342,106.0189,254.0964,4.9133e-05,4.94e-06,0.0,0 STARLINK-4800,1 53854U 22114AN  24212.50522226  .00000494  00000-0  49133-4 0  9991,2 53854  53.2183  40.3342 0001457 106.0189 254.0964 15.08842368103927,6917.873,95.437,540.746,538.73,0.0
53854.0,STARLINK-4800,PAYLOAD,2024-07-31 05:36:45,15.08847406,0.0001368,53.2187,37.0618,94.3502,265.7647,-6.0169e-05,-1.246e-05,0.0,0 STARLINK-4800,1 53854U 22114AN  24213.23386074 -.00001246  00000-0 -60169-4 0  9991,2 53854  53.2187  37.0618 0001368  94.3502 265.7647 15.08847406104576,6917.858,95.437,540.669,538.776,0.0
53854.0,STARLINK-4800,PAYLOAD,2024-07-31 19:55:14,15.08842678,0.0001342,53.2178,34.3797,95.4383,264.6763,-3.8162e-05,-8.95e-06,0.0,0 STARLINK-4800,1 53854U 22114AN  24213.83002402 -.00000895  00000-0 -38162-4 0  9994,2 53854  53.2178  34.3797 0001342  95.4383 264.6763 15.08842678104129,6917.872,95.437,540.666,538.809,0.0
53854.0,STARLINK-4800,PAYLOAD,2024-08-01 11:49:05,15.08867939,0.0001504,53.2178,31.4048,109.0804,251.0351,-0.00029178,-4.932e-05,0.0,0 STARLINK-4800,1 53854U 22114AN  24214.49241917 -.00004932  00000-0 -29178-3 0  9995,2 53854  53.2178  31.4048 0001504 109.0804 251.0351 15.08867939104227,6917.795,95.436,540.7,538.62,0.0
53854.0,STARLINK-4800,PAYLOAD,2024-08-01 21:21:23,15.08855585,0.000143,53.2178,29.6223,93.3833,266.7323,0.00018238,2.617e-05,0.0,0 STARLINK-4800,1 53854U 22114AN  24214.88984969  .00002617  00000-0  18238-3 0  9990,2 53854  53.2178  29.6223 0001430  93.3833 266.7323 15.08855585104828,6917.833,95.437,540.687,538.709,0.0
53854.0,STARLINK-4800,PAYLOAD,2024-08-02 05:18:20,15.08833587,0.0001702,53.2174,28.1359,95.4001,264.7185,8.783e-05,1.11e-05,0.0,0 STARLINK-4800,1 53854U 22114AN  24215.22106713  .00001110  00000-0  87830-4 0  9994,2 53854  53.2174  28.1359 0001702  95.4001 264.7185 15.08833587104338,6917.9,95.438,540.942,538.588,0.0
53854.0,STARLINK-4800,PAYLOAD,2024-08-02 14:50:39,15.08829046,0.0001783,53.2182,26.3495,112.5222,247.5959,4.595e-05,4.43e-06,0.0,0 STARLINK-4800,1 53854U 22114AN  24215.61851433  .00000443  00000-0  45950-4 0  9998,2 53854  53.2182  26.3495 0001783 112.5222 247.5959 15.08829046104932,6917.914,95.438,541.012,538.545,0.0
53854.0,STARLINK-4800,PAYLOAD,2024-08-02 21:12:12,15.08830506,0.0001444,53.2174,25.1629,94.9872,265.1285,3.615e-06,-2.3e-06,0.0,0 STARLINK-4800,1 53854U 22114AN  24215.88347724 -.00000230  00000-0  36150-5 0  9998,2 53854  53.2174  25.1629 0001444  94.9872 265.1285 15.08830506104433,6917.909,95.438,540.773,538.775,0.0
53854.0,STARLINK-4800,PAYLOAD,2024-08-03 11:30:39,15.08848433,0.0001531,53.2181,22.4869,94.8439,265.2728,0.0001683,2.392e-05,0.0,0 STARLINK-4800,1 53854U 22114AN  24216.47962624  .00002392  00000-0  16830-3 0  9997,2 53854  53.2181  22.4869 0001531  94.8439 265.2728 15.08848433104523,6917.855,95.437,540.779,538.66,0.0
53854.0,STARLINK-4800,PAYLOAD,2024-08-03 14:41:25,15.08855253,0.0001435,53.2169,21.8928,92.3038,267.8118,0.00030069,4.503e-05,0.0,0 STARLINK-4800,1 53854U 22114AN  24216.61210316  .00004503  00000-0  30069-3 0  9993,2 53854  53.2169  21.8928 0001435  92.3038 267.8118 15.08855253105080,6917.834,95.437,540.691,538.706,0.0
53854.0,STARLINK-4800,PAYLOAD,2024-08-03 17:52:12,15.08862918,0.0001487,53.2173,21.2976,90.2427,269.8736,0.0011006,0.00017282,0.0,0 STARLINK-4800,1 53854U 22114AN  24216.74458688  .00017282  00000-0  11006-2 0  9990,2 53854  53.2173  21.2976 0001487  90.2427 269.8736 15.08862918105105,6917.81,95.436,540.704,538.647,0.0
53854.0,STARLINK-4800,PAYLOAD,2024-08-04 14:32:12,15.08859467,0.0001013,53.2167,17.431,68.9067,291.2034,0.00055973,8.636e-05,0.0,0 STARLINK-4800,1 53854U 22114AN  24217.60570233  .00008636  00000-0  55973-3 0  9992,2 53854  53.2167  17.4310 0001013  68.9067 291.2034 15.08859467105233,6917.821,95.436,540.387,538.985,0.0
53854.0,STARLINK-4800,PAYLOAD,2024-08-04 17:42:58,15.08874851,0.0001185,53.2166,16.8334,69.6542,290.4577,0.001207,0.00018992,0.0,0 STARLINK-4800,1 53854U 22114AN  24217.73817903  .00018992  00000-0  12070-2 0  9990,2 53854  53.2166  16.8334 0001185  69.6542 290.4577 15.08874851104716,6917.774,95.435,540.459,538.819,0.0
53854.0,STARLINK-4800,PAYLOAD,2024-08-05 03:15:16,15.08901696,0.0001105,53.2168,15.0518,85.1261,274.9857,0.0023765,0.00037801,0.0,0 STARLINK-4800,1 53854U 22114AN  24218.13560357  .00037801  00000-0  23765-2 0  9996,2 53854  53.2168  15.0518 0001105  85.1261 274.9857 15.08901696104778,6917.692,95.434,540.321,538.792,0.0
